OBJECT_NAME,OBJECT_ID,EPOCH,MEAN_MOTION,ECCENTRICITY,INCLINATION,RA_OF_ASC_NODE,ARG_OF_PERICENTER,MEAN_ANOMALY,EPHEMERIS_TYPE,CLASSIFICATION_TYPE,NORAD_CAT_ID,ELEMENT_SET_NO,REV_AT_EPOCH,BSTAR,MEAN_MOTION_DOT,MEAN_MOTION_DDOT
SZ-18 MODULE,2024-078F,2025-02-21T04:44:22.908768,15.74920167,.0010164,41.4766,358.6527,179.5234,180.5622,0,U,62077,999,1693,.54044E-3,.83359E-3,0
SUPERVIEW NEO-2 03,2024-218B,2025-02-19T13:11:20.775264,15.19725482,.0001835,97.4400,59.7888,95.7221,264.4223,0,U,62079,999,1314,.50623E-3,.10757E-3,0
SUPERVIEW NEO-2 04,2024-218C,2025-02-19T13:11:20.719968,15.19726588,.0001552,97.4403,59.7931,112.2672,247.8728,0,U,62080,999,1314,.46271E-3,.9825E-4,0
KINEIS-5C,2024-219A,2025-02-21T00:43:13.892160,14.72798888,.000252,97.9555,215.6296,107.0410,253.1074,0,U,62081,999,1295,.56017E-3,.3533E-4,0
KINEIS-5D,2024-219B,2025-02-21T03:43:56.184096,14.74139737,.0002704,97.9555,215.7753,98.6785,261.4730,0,U,62082,999,1297,.56747E-3,.3693E-4,0
KINEIS-5E,2024-219C,2025-02-21T03:36:20.622816,14.73564068,.0001633,97.9555,215.7820,97.5640,262.5754,0,U,62083,999,1297,.50551E-3,.3241E-4,0
KINEIS-5A,2024-219D,2025-02-21T03:07:42.046464,14.74709739,.0002753,97.9557,215.8099,61.8451,298.3036,0,U,62084,999,1297,.52773E-3,.3477E-4,0
KINEIS-5B,2024-219E,2025-02-21T02:39:06.115680,14.76205803,.0002173,97.9554,215.8341,45.5434,314.5953,0,U,62085,999,1297,.51329E-3,.3501E-4,0
STARLINK-11384 [DTC],2024-220A,2025-02-20T15:33:33.226272,15.70826432,.000177,43.0001,186.2812,273.9405,86.1261,0,U,62088,999,1496,.9995E-5,.833E-5,0
STARLINK-11379 [DTC],2024-220B,2025-02-20T15:25:53.525568,15.70838429,.0003177,43.0033,186.2376,272.1949,87.8555,0,U,62089,999,1486,.10563E-4,.905E-5,0
STARLINK-11387 [DTC],2024-220C,2025-02-20T09:12:01.852992,15.70820248,.0001286,43.0003,187.7299,261.4118,98.6604,0,U,62090,999,1492,.63598E-5,.367E-5,0
STARLINK-11389 [DTC],2024-220D,2025-02-20T09:04:23.207232,15.70820291,.0002526,43.0017,187.6862,275.3510,84.7069,0,U,62091,999,1482,.43586E-5,.109E-5,0
STARLINK-11388 [DTC],2024-220E,2025-02-20T16:34:30.218592,15.70855951,.0001846,42.9989,185.7260,271.1601,88.9055,0,U,62092,999,1487,.24253E-4,.2666E-4,0
STARLINK-11345 [DTC],2024-220F,2025-02-20T16:26:52.925856,15.70830298,.0001671,42.9997,185.6844,280.0142,80.0537,0,U,62093,999,1487,.123E-5,-.291E-5,0
STARLINK-11381 [DTC],2024-220G,2025-02-20T16:19:14.233440,15.70829216,.0000798,42.9954,185.6373,195.6154,164.4689,0,U,62094,999,1487,.19882E-4,.2103E-4,0
STARLINK-11369 [DTC],2024-220H,2025-02-20T16:11:34.779840,15.70843847,.0000487,42.9969,185.5952,257.1353,102.9460,0,U,62095,999,1497,.20432E-4,.2175E-4,0
STARLINK-11303 [DTC],2024-220J,2025-02-20T16:03:53.993952,15.70835040,.0000447,42.9972,185.5597,214.4634,145.6205,0,U,62096,999,1497,.59053E-4,.7135E-4,0
STARLINK-11367 [DTC],2024-220K,2025-02-20T15:56:16.321056,15.70841643,.0001774,43.0000,185.5116,270.4181,89.6483,0,U,62097,999,1497,.16436E-4,.1661E-4,0
STARLINK-11386 [DTC],2024-220L,2025-02-20T15:48:38.765664,15.70839568,.000108,42.9986,185.4710,282.8726,77.2021,0,U,62098,999,1487,.16063E-4,.1613E-4,0
STARLINK-11380 [DTC],2024-220M,2025-02-20T15:41:00.512160,15.70844674,.0001062,42.9953,185.4299,339.2074,20.8750,0,U,62099,999,1487,-.34371E-5,-.889E-5,0
STARLINK-33566,2024-220N,2025-02-20T17:35:28.636512,15.42830224,.0002302,42.9936,202.8203,325.0527,35.0179,0,U,62100,999,1477,.22555E-3,.9819E-4,0
STARLINK-33545,2024-220P,2025-02-20T16:34:51.103200,15.40689691,.0001262,43.0010,203.3711,273.0661,87.0052,0,U,62101,999,1459,.16118E-4,.37E-5,0
STARLINK-33562,2024-220Q,2025-02-20T17:42:23.887008,15.40692875,.0000954,42.9982,202.8592,270.4674,89.6073,0,U,62102,999,1460,-.26862E-5,-.415E-5,0
STARLINK-33554,2024-220R,2025-02-20T10:27:52.607520,15.40700553,.0001869,42.9996,204.8983,268.9884,91.0759,0,U,62103,999,1448,.28808E-4,.9E-5,0
STARLINK-33555,2024-220S,2025-02-20T22:00:01.999584,15.28333234,.0001711,42.9998,201.7322,277.5229,35.2616,0,U,62104,999,1476,.35204E-2,.10022E-2,0
STARLINK-33542,2024-220T,2025-02-20T15:47:16.463616,15.80925415,.0002257,42.9962,183.6301,278.5774,81.4841,0,U,62105,999,1500,.1139E-3,.22333E-3,0
STARLINK-33557,2024-220U,2025-02-20T19:05:45.754944,15.80680589,.0001583,42.9944,195.3861,353.1423,6.9426,0,U,62106,999,1469,.22826E-3,.44885E-3,0
STARLINK-33559,2024-220V,2025-02-21T06:00:02.000160,15.30452639,.0001582,42.9993,199.8063,272.4792,93.3720,0,U,62107,999,1485,-.38117E-1,-.1051875E-1,0
STARLINK-33553,2024-220W,2025-02-20T22:00:01.999584,15.37687323,.0001433,42.9993,201.7882,281.4737,9.8665,0,U,62108,999,1479,-.29572E-1,-.1030377E-1,0
STARLINK-33556,2024-220X,2025-02-20T21:05:13.816032,15.40694305,.0001253,43.0005,202.1977,271.7558,88.3155,0,U,62109,999,1481,.19272E-4,.502E-5,0
STARLINK-33551,2024-220Y,2025-02-21T06:00:02.000160,15.33240132,.0001698,42.9993,199.8330,270.1604,85.0543,0,U,62110,999,1485,-.34956E-1,-.1053199E-1,0
GUANGCHUAN 01,2024-221A,2025-02-21T04:39:28.018656,15.22986470,.0009529,49.9557,350.1865,24.8345,335.3066,0,U,62111,999,1319,.52674E-3,.12269E-3,0
GUANGCHUAN 02,2024-221B,2025-02-21T04:40:56.356608,15.22932484,.0008668,49.9540,350.1772,36.1127,324.0411,0,U,62112,999,1318,.44214E-3,.10223E-3,0
STARLINK-32311,2024-222A,2025-02-20T05:22:08.459328,15.40758797,.0001173,43.0017,136.3454,279.1740,80.8983,0,U,62114,999,1440,-.34306E-3,-.14634E-3,0
STARLINK-32470,2024-222B,2025-02-20T22:00:01.999584,15.30624548,.000138,42.9993,132.1195,277.4870,64.0291,0,U,62115,999,578,-.3969E-1,-.1097015E-1,0
STARLINK-32502,2024-222C,2025-02-20T22:00:01.999584,15.27548153,.0001221,43.0001,132.3418,265.2120,342.4849,0,U,62116,999,1441,.90928E-3,.24819E-3,0
STARLINK-32521,2024-222D,2025-02-21T04:30:41.578272,15.28412049,.0001239,42.9988,127.0962,263.5439,96.5272,0,U,62117,999,1444,.63188E-4,.152E-4,0
STARLINK-32549,2024-222E,2025-02-20T22:00:01.999584,15.37635506,.0001254,42.9994,132.1545,267.7332,60.0333,0,U,62118,999,1441,-.31922E-1,-.1103697E-1,0
STARLINK-32535,2024-222F,2025-02-20T06:42:35.306784,15.40695579,.0001398,42.9951,135.8916,209.3007,150.7771,0,U,62119,999,1427,.47173E-4,.1667E-4,0
STARLINK-32548,2024-222G,2025-02-21T05:06:25.534656,15.27533786,.0000728,42.9985,130.8535,207.7665,152.3148,0,U,62120,999,1440,.35383E-3,.9474E-4,0
STARLINK-32525,2024-222H,2025-02-20T22:00:01.999584,15.33065648,.0001409,42.9994,132.1265,276.6058,61.9816,0,U,62121,999,1436,-.3678E-1,-.1097889E-1,0
STARLINK-32628,2024-222J,2025-02-20T22:00:01.999584,15.28370576,.0001353,42.9993,132.2708,288.0796,349.1104,0,U,62122,999,1451,.10972E-2,.30796E-3,0
STARLINK-32626,2024-222K,2025-02-20T13:15:37.396224,15.27569145,.0001888,43.0025,134.5001,271.6123,88.4513,0,U,62123,999,1430,-.22959E-3,-.6573E-4,0
STARLINK-32608,2024-222L,2025-02-20T22:00:01.999584,15.28416304,.0001452,42.9994,132.1585,273.0443,50.9593,0,U,62124,999,1434,-.75381E-3,-.21484E-3,0
STARLINK-32488,2024-222M,2025-02-21T05:15:36.031392,15.28413149,.0001318,42.9979,130.8988,262.4362,97.6340,0,U,62125,999,1430,.15365E-4,.169E-5,0
STARLINK-32490,2024-222N,2025-02-20T22:00:01.999584,15.35442222,.0001344,42.9993,132.1275,277.4089,60.6872,0,U,62126,999,1435,-.34139E-1,-.1099506E-1,0
STARLINK-32557,2024-222P,2025-02-20T11:36:51.773184,15.40684764,.0001475,43.0013,128.6420,257.6780,102.3911,0,U,62127,999,1440,.464E-4,.1634E-4,0
STARLINK-32568,2024-222Q,2025-02-20T05:21:34.835904,15.28437663,.0001075,42.9953,136.3262,100.1500,259.9473,0,U,62128,999,1399,.14191E-3,.3747E-4,0
STARLINK-32462,2024-222R,2025-02-20T16:09:12.161088,15.40658293,.0001457,42.9939,133.6837,119.2668,240.8334,0,U,62129,999,1432,-.17379E-3,-.7546E-4,0
STARLINK-32463,2024-222S,2025-02-20T22:00:01.999584,15.33348585,.0001305,42.9994,132.0864,275.9957,78.3978,0,U,62130,999,1436,-.36455E-1,-.1097995E-1,0
STARLINK-32550,2024-222T,2025-02-20T16:00:01.999584,15.27585065,.0001055,43.0011,133.8884,262.4582,352.2118,0,U,62131,999,592,-.17086E-2,-.46989E-3,0
STARLINK-32507,2024-222U,2025-02-20T06:39:22.335840,15.40674267,.0000711,42.9960,135.8772,236.0903,123.9886,0,U,62132,999,1411,-.46549E-4,-.2245E-4,0
STARLINK-32245,2024-222V,2025-02-20T22:00:01.999584,15.27515262,.0000332,42.9995,132.2874,242.0314,26.8912,0,U,62133,999,1451,.10435E-2,.28507E-3,0
STARLINK-32546,2024-222W,2025-02-21T04:32:46.364928,15.40728390,.0002201,43.0047,130.6853,283.9405,76.1207,0,U,62134,999,1429,-.21109E-3,-.912E-4,0
STARLINK-32545,2024-222X,2025-02-20T12:01:48.659232,15.27575991,.0001496,42.9991,134.9702,233.5926,126.4788,0,U,62135,999,1434,-.2897E-4,-.1059E-4,0
STARLINK-32554,2024-222Y,2025-02-20T22:00:01.999584,15.27604781,.0001238,42.9993,132.1525,284.1424,41.3201,0,U,62136,999,1440,-.20949E-2,-.57507E-3,0
STARLINK-32570,2024-222Z,2025-02-20T22:00:01.999584,15.27525408,.0001076,42.9993,132.2363,243.2765,46.8508,0,U,62137,999,1450,.98184E-3,.26809E-3,0
KONDOR-FKA NO. 2,2024-223A,2025-02-21T04:40:59.431584,15.21195913,.0001664,97.4383,257.7590,72.3320,287.8097,0,U,62138,999,1265,.42488E-3,.9411E-4,0
STARLINK-32529,2024-224A,2025-02-20T17:41:23.154720,15.40692386,.0001304,43.0005,159.6710,239.3509,120.7219,0,U,62139,999,1395,.2081E-4,.566E-5,0
STARLINK-32464,2024-224B,2025-02-20T13:39:21.555936,15.32123485,.0001445,42.9983,162.6872,264.3751,95.6938,0,U,62140,999,1389,-.17591E-3,-.5842E-4,0
STARLINK-32482,2024-224C,2025-02-20T15:29:28.443840,15.32081258,.0000735,43.0001,162.4063,253.8620,106.2153,0,U,62141,999,1381,.12688E-3,.374E-4,0
STARLINK-32454,2024-224D,2025-02-20T15:23:19.705056,15.27605742,.000108,42.9987,163.2396,208.4775,151.6018,0,U,62142,999,1396,-.2027E-3,-.584E-4,0
STARLINK-32485,2024-224E,2025-02-20T15:00:16.651872,15.32088444,.0000946,42.9982,162.2443,245.5462,114.5292,0,U,62143,999,1354,.5723E-4,.1536E-4,0
STARLINK-32388,2024-224F,2025-02-20T15:17:47.432256,15.27573880,.0000946,42.9991,163.2111,255.1657,104.9090,0,U,62144,999,1396,.10412E-3,.2604E-4,0
STARLINK-32374,2024-224G,2025-02-20T08:51:14.614560,15.32098384,.0001152,42.9966,163.7604,215.9664,144.1112,0,U,62145,999,1393,.58326E-4,.1571E-4,0
